NORAD_CAT_ID,TLE_LINE0,TLE_LINE1,TLE_LINE2,CREATION_DATE,OBJECT_NAME,OBJECT_ID,EPOCH,MEAN_MOTION,ECCENTRICITY,INCLINATION,RA_OF_ASC_NODE,ARG_OF_PERICENTER,MEAN_ANOMALY,REV_AT_EPOCH,BSTAR,MEAN_MOTION_DOT,MEAN_MOTION_DDOT,SEMIMAJOR_AXIS,PERIOD,APOAPSIS,PERIAPSIS,OBJECT_TYPE,COUNTRY_CODE,LAUNCH_DATE,SITE,DECAY_DATE,LAUNCH_YEAR,LAUNCH_SEQ,EPOCH_FINAL,ORBIT_CLASS,EVENT,DURATION,RCS_SIZE
846,0 OPS 3042,1 00846U 64043  A 64242.86444473  .02683671 +00000-0 +00000-0 0  9996,2 00846 079.9889 334.9343 0073737 051.0581 309.5969 16.23653155003827,15/08/2004 23:35,OPS 3042,1964-043A,29/08/1964 20:44,16.23653155,0.0073737,79.9889,334.9343,51.0581,309.5969,382,0.0,0.02683671,0.0,6587.793,88.688,258.234,161.081,PAYLOAD,US,03/06/1964,AFWTR,01/09/1964,1964,43,30/08/1964 17:29,LEO,1,90,MEDIUM
847,0 SCOUT X-3 DEB,1 00847U 64015  C 68122.77338163  .01946550 +00000-0 +00000-0 0  9992,2 00847 051.2933 220.8921 0089631 109.8905 251.1688 15.93926181212402,15/08/2004 23:36,SCOUT X-3 DEB,1964-015C,01/05/1968 18:33,15.93926181,0.0089631,51.2933,220.8921,109.8905,251.1688,21240,0.0,0.0194655,0.0,6669.449,90.342,351.093,231.535,DEBRIS,US,22/02/1964,AFWTR,06/05/1968,1964,15,02/05/1968 13:07,LEO,1,1535,SMALL
848,0 COSMOS 37,1 00848U 64044  A 64232.35831689  .00096245 +00000-0 +00000-0 0  9994,2 00848 064.9611 122.9923 0062486 015.9849 344.3024 16.10866081000804,15/08/2004 23:35,COSMOS 37,1964-044A,19/08/1964 08:35,16.10866081,0.0062486,64.9611,122.9923,15.9849,344.3024,80,0.0,0.00096245,0.0,6622.609,89.392,285.856,203.092,PAYLOAD,CIS,05/06/1964,PKMTR,22/08/1964,1964,44,19/08/1964 17:11,LEO,1,78,MEDIUM
849,0 SL-3 R/B,1 00849U 64044  B 64245.03707786  .01604465 +00000-0 +00000-0 0  9994,2 00849 065.0188 075.7070 0000000 359.9702 000.0297 16.29386624002852,15/08/2004 23:35,SL-3 R/B,1964-044B,01/09/1964 00:53,16.29386624,0.0,65.0188,75.707,359.9702,0.0297,285,0.0,0.01604465,0.0,6572.329,88.376,194.194,194.194,ROCKET BODY,CIS,07/06/1964,PKMTR,03/09/1964,1964,44,01/09/1964 01:46,LEO,1,88,LARGE
850,0 OPS 3802,1 00850U 64045  A 64234.93047879  .03973716 +00000-0 +00000-0 0  9994,2 00850 095.5235 356.2216 0057105 110.8995 249.7324 16.35462444001146,15/08/2004 23:35,OPS 3802,1964-045A,21/08/1964 22:19,16.35462444,0.0057105,95.5235,356.2216,110.8995,249.7324,114,0.0,0.03973716,0.0,6556.042,88.048,215.345,140.468,PAYLOAD,US,09/06/1964,AFWTR,23/08/1964,1964,45,22/08/1964 20:39,LEO,1,75,MEDIUM
851,0 OPS 3316,1 00851U 64045  B 79067.20968408  .04483484 +43145-0 +92278-3 0  9992,2 00851 095.3800 294.0435 0039596 174.4719 187.1319 16.37377387686870,15/08/2004 23:41,OPS 3316,1964-045B,08/03/1979 05:01,16.37377387,0.0039596,95.38,294.0435,174.4719,187.1319,68687,0.00092278,0.04483484,0.43145,6550.929,87.945,198.733,146.855,PAYLOAD,US,14/08/1964,AFWTR,08/03/1979,1964,45,08/03/1979 10:03,LEO,1,5319,MEDIUM
852,0 ATLAS AGENA D R/B,1 00852U 64045  C 64229.06814550  .10145629 +00000-0 +00000-0 0  9994,2 00852 095.5026 351.1950 0078062 141.5794 218.9843 16.29540829000193,15/08/2004 23:35,ATLAS AGENA D R/B,1964-045C,16/08/1964 01:38,16.29540829,0.0078062,95.5026,351.195,141.5794,218.9843,19,0.0,0.10145629,0.0,6571.915,88.368,245.081,142.478,ROCKET BODY,US,11/06/1964,AFETR,16/08/1964,1964,45,16/08/1964 03:16,LEO,1,66,LARGE
853,0 COSMOS 38,1 00853U 64046  A 64310.94437097  .02387148 +00000-0 +00000-0 0  9996,2 00853 056.1039 126.6414 0072429 245.7833 113.4728 16.18972634012424,15/08/2004 23:35,COSMOS 38,1964-046A,05/11/1964 22:39,16.18972634,0.0072429,56.1039,126.6414,245.7833,113.4728,1242,0.0,0.02387148,0.0,6600.483,88.945,270.155,174.542,PAYLOAD,CIS,13/06/1964,PKMTR,08/11/1964,1964,46,06/11/1964 21:19,LEO,1,148,MEDIUM
854,0 COSMOS 39,1 00854U 64046  B 64320.81997294  .02869103 +00000-0 +00000-0 0  9990,2 00854 056.1091 082.7725 0061510 263.9389 095.3591 16.23252192013958,15/08/2004 23:35,COSMOS 39,1964-046B,15/11/1964 19:40,16.23252192,0.006151,56.1091,82.7725,263.9389,95.3591,1395,0.0,0.02869103,0.0,6588.877,88.71,251.27,170.214,PAYLOAD,CIS,15/06/1964,PKMTR,17/11/1964,1964,46,16/11/1964 15:21,LEO,1,155,MEDIUM
855,0 COSMOS 40,1 00855U 64046  C 64322.08319328  .03136301 +00000-0 +00000-0 0  9996,2 00855 056.1046 073.5674 0056486 270.1941 089.1579 16.24948377014204,15/08/2004 23:35,COSMOS 40,1964-046C,17/11/1964 01:59,16.24948377,0.0056486,56.1046,73.5674,270.1941,89.1579,1420,0.0,0.03136301,0.0,6584.291,88.618,243.348,168.964,PAYLOAD,CIS,17/06/1964,PKMTR,18/11/1964,1964,46,17/11/1964 03:59,LEO,1,154,MEDIUM
856,0 SL-8 R/B,1 00856U 64046  D 65045.79763514  .01444535 +61981-2 +00000-0 0  9994,2 00856 056.1064 042.9284 0088526 094.5402 266.4762 16.16167932027975,15/08/2004 23:35,SL-8 R/B,1964-046D,14/02/1965 19:08,16.16167932,0.0088526,56.1064,42.9284,94.5402,266.4762,2797,0.0,0.01444535,0.0061981,6608.118,89.099,288.482,171.484,ROCKET BODY,CIS,19/06/1964,PKMTR,19/02/1965,1964,46,15/02/1965 14:17,LEO,1,245,LARGE
857,0 SL-8 DEB,1 00857U 64046  E 64265.63914510  .00224557 +00000-0 +00000-0 0  9997,2 00857 056.1438 339.7199 0375475 135.6279 227.4425 15.32969061005232,15/08/2004 23:35,SL-8 DEB,1964-046E,21/09/1964 15:20,15.32969061,0.0375475,56.1438,339.7199,135.6279,227.4425,523,0.0,0.00224557,0.0,6845.1,93.935,723.982,209.949,DEBRIS,CIS,21/06/1964,PKMTR,21/09/1964,1964,46,22/09/1964 06:40,LEO,1,92,SMALL
858,0 SYNCOM 3,1 00858U 64047A   25188.37961380 -.00000103  00000-0  00000-0 0  9998,2 00858   6.1211  68.0100 0003632 138.1442 201.2599  1.00313022 50001,09/07/2025 02:22,SYNCOM 3,1964-047A,07/07/2025 09:06,1.00313022,0.0003632,6.1211,68.01,138.1442,201.2599,5000,0.0,-1.03e-06,0.0,42153.176,1435.507,35790.351,35759.731,PAYLOAD,US,19/08/1964,AFETR,,1964,47,07/07/2025 18:13,GEO,0,22243,LARGE
859,0 SL-8 DEB,1 00859U 64046  F 64269.44221352  .00156654 +00000-0 +00000-0 0  9999,2 00859 056.2462 320.1661 0351493 134.6754 228.2424 15.47174018005875,15/08/2004 23:35,SL-8 DEB,1964-046F,25/09/1964 10:36,15.47174018,0.0351493,56.2462,320.1661,134.6754,228.2424,587,0.0,0.00156654,0.0,6803.138,93.072,664.129,185.878,DEBRIS,CIS,23/06/1964,PKMTR,25/09/1964,1964,46,25/09/1964 21:13,LEO,1,94,SMALL
860,0 SL-8 DEB,1 00860U 64046  G 64259.22047351  .00209056 +00000-0 +00000-0 0  9996,2 00860 056.0201 008.1175 0361478 120.8962 242.7079 15.24164138004234,15/08/2004 23:35,SL-8 DEB,1964-046G,15/09/1964 05:17,15.24164138,0.0361478,56.0201,8.1175,120.8962,242.7079,423,0.0,0.00209056,0.0,6871.437,94.478,741.69,244.915,DEBRIS,CIS,25/06/1964,PKMTR,16/09/1964,1964,46,15/09/1964 10:34,LEO,1,83,SMALL
861,0 OPS 2739 (STARFLASH 1B),1 00861U 64048  A 65088.19436568  .01956889 +12232-1 +00000-0 0  9993,2 00861 114.9555 309.7397 0003377 334.6901 025.2917 16.27999263034851,15/08/2004 23:35,OPS 2739 (STARFLASH 1B),1964-048A,29/03/1965 04:39,16.27999263,0.0003377,114.9555,309.7397,334.6901,25.2917,3485,0.0,0.01956889,0.012232,6576.063,88.452,200.149,195.707,PAYLOAD,US,27/06/1964,AFWTR,31/03/1965,1964,48,29/03/1965 09:19,LEO,1,277,MEDIUM
862,0 DELTA 1 R/B,1 00862U 64047B   25192.69638667 -.00000286  00000-0  00000-0 0  9994,2 00862  16.5956  67.7862 7125710 207.6186  82.0600  2.05104197251170,12/07/2025 17:51,DELTA 1 R/B,1964-047B,11/07/2025 16:42,2.05104197,0.712571,16.5956,67.7862,207.6186,82.06,25117,0.0,-2.86e-06,0.0,26166.892,702.082,38434.526,1142.989,ROCKET BODY,US,19/08/1964,AFETR,,1964,47,12/07/2025 09:25,MEO,0,22243,LARGE
863,0 SL-6 R/B(1),1 00863U 64049  A 64257.92353175  .03435192 +00000-0 +00000-0 0  9996,2 00863 064.7598 034.2794 0047483 059.2525 301.2423 16.25626035003612,15/08/2004 23:35,SL-6 R/B(1),1964-049A,13/09/1964 22:09,16.25626035,0.0047483,64.7598,34.2794,59.2525,301.2423,361,0.0,0.03435192,0.0,6582.461,88.581,235.582,173.071,ROCKET BODY,CIS,29/06/1964,PKMTR,15/09/1964,1964,49,14/09/1964 20:19,LEO,1,78,LARGE
864,0 COSMOS 42,1 00864U 64050  A 65351.95841643  .02097261 +14052-1 +00000-0 0  9993,2 00864 048.9323 186.0623 0042531 070.8274 289.6459 16.27657515073264,15/08/2004 23:35,COSMOS 42,1964-050A,17/12/1965 23:00,16.27657515,0.0042531,48.9323,186.0623,70.8274,289.6459,7326,0.0,0.02097261,0.014052,6576.983,88.47,226.821,170.876,PAYLOAD,CIS,05/07/1964,PKMTR,19/12/1965,1964,50,18/12/1965 22:00,LEO,1,532,MEDIUM
865,0 SL-6 DEB,1 00865U 64049  B 64267.80555438  .01740687 +00000-0 +00000-0 0  9998,2 00865 064.7452 358.8931 0078606 055.5309 305.2092 16.16205824005179,15/08/2004 23:35,SL-6 DEB,1964-049B,23/09/1964 19:19,16.16205824,0.0078606,64.7452,358.8931,55.5309,305.2092,517,0.0,0.01740687,0.0,6608.014,89.097,281.822,177.936,DEBRIS,CIS,01/07/1964,PKMTR,28/09/1964,1964,49,24/09/1964 14:39,LEO,1,89,SMALL
866,0 SL-7 R/B,1 00866U 64050  B 65205.83449580  .00934352 +21754-2 +00000-0 0  9991,2 00866 048.8965 195.5290 0107626 153.9491 206.6657 16.04926956051104,15/08/2004 23:35,SL-7 R/B,1964-050B,24/07/1965 20:01,16.04926956,0.0107626,48.8965,195.529,153.9491,206.6657,5110,0.0,0.00934352,0.0021754,6638.937,89.723,332.255,189.35,ROCKET BODY,CIS,07/07/1964,PKMTR,02/08/1965,1964,50,25/07/1965 16:03,LEO,1,391,LARGE
867,0 COSMOS 43,1 00867U 64050  C 65360.30809102  .02649314 +22405-1 +00000-0 0  9992,2 00867 048.9034 138.4702 0041003 105.9590 254.5048 16.28959218074609,22/04/2005 10:35,COSMOS 43,1964-050C,26/12/1965 07:23,16.28959218,0.0041003,48.9034,138.4702,105.959,254.5048,115,7460.0,0.0,0.02649314,0.022,6573.479,88.4,222.297,PAYLOAD,CIS,09/07/1964,PKMTR,27/12/1965,1964,50,26/12/1965 14:47,HEO,1,536,UNKNOWN
868,0 SL-6 DEB,1 00868U 64049  C 64244.82351774  .00009783 +00000-0 +00000-0 0  9999,2 00868 064.8182 082.7882 0276934 067.7419 295.1717 15.75330275001509,15/08/2004 23:35,SL-6 DEB,1964-049C,31/08/1964 19:45,15.75330275,0.0276934,64.8182,82.7882,67.7419,295.1717,150,0.0,9.78e-05,0.0,6721.832,91.409,529.848,157.547,DEBRIS,CIS,03/07/1964,PKMTR,31/08/1964,1964,49,01/09/1964 15:31,LEO,1,59,SMALL
